{"fetched_at":"2026-03-29T02:12:04Z","count":15717,"tles":[{"name":"USA 159 (DSP 21)","line1":"1 26880U 01033A   26087.44582569  .00000039  00000+0  00000+0 0  9997","line2":"2 26880  12.7061  16.9789 0000617 276.3508 273.6979  0.99198212 32153","category":"Military"}]}