{
  "norad_id": 26880,
  "name": "USA 159 (DSP 21)",
  "history": [
    {
      "epoch": "2026-03-28T10:41:59.339616Z",
      "apogee_km": 36092.88906457639,
      "perigee_km": 36087.64591535806,
      "latitude_deg": -2.203487426310738,
      "longitude_deg": -139.55886098405068,
      "height_km": 36089.96833793832,
      "semi_major_axis_km": 42468.40448996722,
      "eccentricity": 6.173e-05,
      "inclination_deg": 12.7061,
      "raan_deg": 16.9789,
      "arg_perigee_deg": 276.3508,
      "mean_anomaly_deg": 273.6979,
      "mean_motion_rev_day": 0.99198212
    }
  ]
}